{
    "links": {
        "self": "http://www.neowsapp.com/rest/v1/neo/3285302?api_key=iIulBulltgU6a56xZRHN4H3l9WmuAYTsLGpBGhQ2"
    },
    "id": "3285302",
    "neo_reference_id": "3285302",
    "name": "(2005 OF3)",
    "designation": "2005 OF3",
    "nasa_jpl_url": "http://ssd.jpl.nasa.gov/sbdb.cgi?sstr=3285302",
    "absolute_magnitude_h": 22.0,
    "estimated_diameter": {
        "kilometers": {
            "estimated_diameter_min": 0.1058168859,
            "estimated_diameter_max": 0.2366137501
        },
        "meters": {
            "estimated_diameter_min": 105.8168859331,
            "estimated_diameter_max": 236.6137501138
        },
        "miles": {
            "estimated_diameter_min": 0.0657515442,
            "estimated_diameter_max": 0.1470249225
        },
        "feet": {
            "estimated_diameter_min": 347.1682720448,
            "estimated_diameter_max": 776.2918559233
        }
    },
    "is_potentially_hazardous_asteroid": false,
    "close_approach_data": [
        {
            "close_approach_date": "1918-10-15",
            "close_approach_date_full": "1918-Oct-15 20:39",
            "epoch_date_close_approach": -1616124060000,
            "relative_velocity": {
                "kilometers_per_second": "3.8827943831",
                "kilometers_per_hour": "13978.0597792477",
                "miles_per_hour": "8685.4227556109"
            },
            "miss_distance": {
                "astronomical": "1.5819756795",
                "lunar": "615.3885393255",
                "kilometers": "236660192.045002665",
                "miles": "147053824.360320177"
            },
            "orbiting_body": "Juptr"
        },
        {
            "close_approach_date": "2005-07-19",
            "close_approach_date_full": "2005-Jul-19 18:33",
            "epoch_date_close_approach": 1121797980000,
            "relative_velocity": {
                "kilometers_per_second": "9.771028507",
                "kilometers_per_hour": "35175.7026251347",
                "miles_per_hour": "21856.8136672677"
            },
            "miss_distance": {
                "astronomical": "0.0504713282",
                "lunar": "19.6333466698",
                "kilometers": "7550403.194790934",
                "miles": "4691602.9927215292"
            },
            "orbiting_body": "Earth"
        },
        {
            "close_approach_date": "2075-08-26",
            "close_approach_date_full": "2075-Aug-26 03:06",
            "epoch_date_close_approach": 3334014360000,
            "relative_velocity": {
                "kilometers_per_second": "22.3982020664",
                "kilometers_per_hour": "80633.5274389273",
                "miles_per_hour": "50102.5382022601"
            },
            "miss_distance": {
                "astronomical": "0.4399621258",
                "lunar": "171.1452669362",
                "kilometers": "65817396.900352046",
                "miles": "40897034.0132123948"
            },
            "orbiting_body": "Earth"
        }
    ],
    "orbital_data": {
        "orbit_id": "14",
        "orbit_determination_date": "2017-04-06 09:10:42",
        "first_observation_date": "2005-07-30",
        "last_observation_date": "2005-09-11",
        "data_arc_in_days": 43,
        "observations_used": 75,
        "orbit_uncertainty": "7",
        "minimum_orbit_intersection": ".0511517",
        "jupiter_tisserand_invariant": "3.276",
        "epoch_osculation": "2459000.5",
        "eccentricity": ".5860092807110167",
        "semi_major_axis": "2.386338612930441",
        "inclination": "3.284011629959012",
        "ascending_node_longitude": "174.0401501956817",
        "orbital_period": "1346.469529117437",
        "perihelion_distance": ".9879220388341481",
        "perihelion_argument": "94.87335551400301",
        "aphelion_distance": "3.784755187026734",
        "perihelion_time": "2458927.675067802025",
        "mean_anomaly": "19.47090151268066",
        "mean_motion": ".2673658721679111",
        "equinox": "J2000",
        "orbit_class": {
            "orbit_class_type": "APO",
            "orbit_class_description": "Near-Earth asteroid orbits which cross the Earth’s orbit similar to that of 1862 Apollo",
            "orbit_class_range": "a (semi-major axis) > 1.0 AU; q (perihelion) < 1.017 AU"
        }
    },
    "is_sentry_object": false
}